CCSDS_OEM_VERS = 2.0
CREATION_DATE = 2024-10-01T19:01:00.929000000
ORIGINATOR = NONE

META_START
OBJECT_NAME = _SCPACE_OEM
OBJECT_ID = 1
CENTER_NAME = EARTH
REF_FRAME = EME2000
TIME_SYSTEM = UTC
START_TIME = 2024-09-30T08:00:00.000000000
STOP_TIME = 2024-10-01T16:00:00.000000000
INTERPOLATION = LAGRANGE
INTERPOLATION_DEGREE = 8
META_STOP

2024-09-30T18:27:00.000000000  6.065905343494731e+03  3.060825557185782e+03  1.892907111453662e+03  2.283276013831589e+00 -7.022516067519798e-02 -7.164293082864599e+00
2024-09-30T18:28:00.000000000  6.190398745747492e+03  3.050353411770762e+03  1.459460468010016e+03  1.865090555660967e+00 -2.787258148483092e-01 -7.278985182741496e+00
2024-09-30T18:29:00.000000000  6.289564416588318e+03  3.027401661277489e+03  1.020026160114318e+03  1.439309978348013e+00 -4.860672457521480e-01 -7.363809055144035e+00
2024-09-30T18:30:00.000000000  6.362999323661622e+03  2.992065598784878e+03  5.764073517310393e+02  1.007695212614933e+00 -6.913931779456278e-01 -7.418418634408297e+00
2024-09-30T18:31:00.000000000  6.410406913681852e+03  2.944491676497094e+03  1.304242393049293e+02  5.720326557623188e-01 -8.938555568346004e-01 -7.442595346619904e+00
2024-09-30T18:32:00.000000000  6.431598362151172e+03  2.884876827787520e+03 -3.160939933724847e+02  1.341257290767628e-01 -1.092618907344457e+00 -7.436250458049171e+00
2024-09-30T18:33:00.000000000  6.426493331378241e+03  2.813467666036370e+03 -7.613165776363868e+02 -3.042142023606990e-01 -1.286864448394205e+00 -7.399425629870887e+00
2024-09-30T18:34:00.000000000  6.395120173245881e+03  2.730559320445248e+03 -1.203419218206948e+03 -7.411771721029212e-01 -1.475793821789142e+00 -7.332291700546734e+00
2024-09-30T18:35:00.000000000  6.337615593730273e+03  2.636494133398341e+03 -1.640591663103510e+03 -1.174962613455259e+00 -1.658632310207668e+00 -7.235146695236054e+00
2024-09-30T18:36:00.000000000  6.254223855551919e+03  2.531660135659157e+03 -2.071045328219957e+03 -1.603786986892583e+00 -1.834631974261274e+00 -7.108413575641134e+00
2024-09-30T18:37:00.000000000  6.145295560267517e+03  2.416489373926695e+03 -2.493020654948935e+03 -2.025891109277213e+00 -2.003074486745786e+00 -6.952637802486743e+00
2024-09-30T18:38:00.000000000  6.011285927071407e+03  2.291456031348481e+03 -2.904794436724320e+03 -2.439547492046990e+00 -2.163274076689493e+00 -6.768484565341981e+00
2024-09-30T18:39:00.000000000  5.852752574666557e+03  2.157074293938057e+03 -3.304687065050885e+03 -2.843067621730426e+00 -2.314580629742769e+00 -6.556735368490100e+00
2024-09-30T18:40:00.000000000  5.670353212982266e+03  2.013896287727137e+03 -3.691068997179875e+03 -3.234808531822452e+00 -2.456382268630093e+00 -6.318284342023465e+00
2024-09-30T18:41:00.000000000  5.464842602315899e+03  1.862509670987226e+03 -4.062367664422432e+03 -3.613180008140746e+00 -2.588107813633587e+00 -6.054133749863989e+00
2024-09-30T18:42:00.000000000  5.237069162107888e+03  1.703535094096712e+03 -4.417073737242747e+03 -3.976651112614316e+00 -2.709228981943312e+00 -5.765388853485575e+00
2024-09-30T18:43:00.000000000  4.987971358019026e+03  1.537623629648549e+03 -4.753746999847109e+03 -4.323755740661662e+00 -2.819262289929684e+00 -5.453252541484519e+00
2024-09-30T18:44:00.000000000  4.718573364251341e+03  1.365453862989067e+03 -5.071022422067667e+03 -4.653098432433822e+00 -2.917770913721010e+00 -5.119019605809910e+00
2024-09-30T18:45:00.000000000  4.429980845068391e+03  1.187729157242739e+03 -5.367615272780716e+03 -4.963359587906983e+00 -3.004366124443281e+00 -4.764070992289112e+00
2024-09-30T18:46:00.000000000  4.123376276445570e+03  1.005174753984452e+03 -5.642326049431133e+03 -5.253300301419685e+00 -3.078708365319775e+00 -4.389867434094998e+00
2024-09-30T18:47:00.000000000  3.800013922016361e+03  8.185347624099022e+02 -5.894045139484216e+03 -5.521766689444135e+00 -3.140508032631544e+00 -3.997943139545926e+00
2024-09-30T18:48:00.000000000  3.461214667711699e+03  6.285691728278634e+02 -6.121757002224659e+03 -5.767694033112213e+00 -3.189526333019250e+00 -3.589899354786122e+00
2024-09-30T18:49:00.000000000  3.108360431245770e+03  4.360507162066422e+02 -6.324544038197472e+03 -5.990110338828913e+00 -3.225576055545160e+00 -3.167396944227800e+00
2024-09-30T18:50:00.000000000  2.742888770738506e+03  2.417618791909985e+02 -6.501589854135193e+03 -6.188138525686607e+00 -3.248521762675316e+00 -2.732149598235391e+00
2024-09-30T18:51:00.000000000  2.366286783735800e+03  4.649163042431508e+01 -6.652182351716163e+03 -6.360998954169378e+00 -3.258279770137330e+00 -2.285917440360233e+00
2024-09-30T18:52:00.000000000  1.980085452497418e+03 -1.489675335074507e+02 -6.775716282174862e+03 -6.508012019259124e+00 -3.254818134939216e+00 -1.830501043046170e+00
2024-09-30T18:53:00.000000000  1.585853517950393e+03 -3.438227385347757e+02 -6.871695465804313e+03 -6.628600502624811e+00 -3.238156735020020e+00 -1.367734430830398e+00
2024-09-30T18:54:00.000000000  1.185191045414780e+03 -5.372839543260191e+02 -6.939734585292016e+03 -6.722291195445168e+00 -3.208367139697992e+00 -8.994778932080085e-01
2024-09-30T18:55:00.000000000  7.797235462439251e+02 -7.285668792350381e+02 -6.979560569009797e+03 -6.788716240840366e+00 -3.165572181398983e+00 -4.276116635343030e-01
2024-09-30T18:56:00.000000000  3.710953180742411e+02 -9.168961436860936e+02 -6.991013574575090e+03 -6.827614652573586e+00 -3.109945212771648e+00  4.597149387968127e-02
2024-09-30T18:57:00.000000000 -3.903689900707819e+01 -1.101508277855818e+03 -6.974047525587362e+03 -6.838832834148138e+00 -3.041709164522447e+00  5.193734471590169e-01
2024-09-30T18:58:00.000000000 -4.490103730324913e+02 -1.281654643294022e+03 -6.928730221266829e+03 -6.822324420990565e+00 -2.961135674390675e+00  9.906974665472704e-01
2024-09-30T18:59:00.000000000 -8.571628032150786e+02 -1.456604346906370e+03 -6.855243062973156e+03 -6.778149976928129e+00 -2.868544238189519e+00  1.458054520001884e+00
2024-09-30T19:00:00.000000000 -1.261838616342756e+03 -1.625647044313677e+03 -6.753880485565543e+03 -6.706476758773214e+00 -2.764301283214607e+00  1.919569134487802e+00
2024-09-30T19:01:00.000000000 -1.661395669151256e+03 -1.788095808601243e+03 -6.625048712313202e+03 -6.607578931859350e+00 -2.648819139237338e+00  2.373385721655704e+00
2024-09-30T19:02:00.000000000 -2.054211342123249e+03 -1.943289777718536e+03 -6.469264702268486e+03 -6.481838012044905e+00 -2.522554942366068e+00  2.817674724702555e+00
2024-09-30T19:03:00.000000000 -2.438689280690601e+03 -2.090596842232022e+03 -6.287154099617807e+03 -6.329742785526873e+00 -2.386009001569446e+00  3.250640936131091e+00
2024-09-30T19:04:00.000000000 -2.813265463305913e+03 -2.229416134983572e+03 -6.079449148151987e+03 -6.151887321766721e+00 -2.239722963804472e+00  3.670531073075821e+00
2024-09-30T19:05:00.000000000 -3.176414653184604e+03 -2.359180486914398e+03 -5.846985828617506e+03 -5.948968139744607e+00 -2.084278059757711e+00  4.075640501891509e+00
2024-09-30T19:06:00.000000000 -3.526656474679087e+03 -2.479358770459216e+03 -5.590700736314295e+03 -5.721782153370929e+00 -1.920293451089474e+00  4.464319069701251e+00
2024-09-30T19:07:00.000000000 -3.862561251055759e+03 -2.589458062285675e+03 -5.311627770025400e+03 -5.471225030068569e+00 -1.748424123302179e+00  4.834977369784549e+00
2024-09-30T19:08:00.000000000 -4.182756031911951e+03 -2.689025778847731e+03 -5.010894120815546e+03 -5.198288650781349e+00 -1.569358331139912e+00  5.186093709255860e+00
2024-09-30T19:09:00.000000000 -4.485930125547312e+03 -2.777651549877468e+03 -4.689716158486443e+03 -4.904058136211345e+00 -1.383815326817755e+00  5.516220627439331e+00
2024-09-30T19:10:00.000000000 -4.770840705092804e+03 -2.854969048637756e+03 -4.349394651202237e+03 -4.589708134790570e+00 -1.192542790592676e+00  5.823991755697243e+00
2024-09-30T19:11:00.000000000 -5.036318019226077e+03 -2.920657582455971e+03 -3.991309698812213e+03 -4.256498390173438e+00 -9.963138336888245e-01  6.108128146048512e+00
2024-09-30T19:12:00.000000000 -5.281270327049653e+03 -2.974443534768461e+03 -3.616915405360292e+03 -3.905769014814079e+00 -7.959239299845101e-01  6.367443675114599e+00
2024-09-30T19:13:00.000000000 -5.504688308010108e+03 -3.016101580593252e+03 -3.227734719904488e+03 -3.538936294744089e+00 -5.921882190186618e-01  6.600850031891201e+00
2024-09-30T19:14:00.000000000 -5.705650263412595e+03 -3.045455838414505e+03 -2.825351630464551e+03 -3.157486430813438e+00 -3.859376067068056e-01  6.807363251469512e+00
2024-09-30T19:15:00.000000000 -5.883325366309342e+03 -3.062380692134896e+03 -2.411406687331297e+03 -2.762971149194755e+00 -1.780161649539647e-01  6.986107895286409e+00
2024-09-30T19:16:00.000000000 -6.036977666260130e+03 -3.066801462789453e+03 -1.987589559851892e+03 -2.357000647731661e+00  3.072283794830139e-02  7.136322515691627e+00
2024-09-30T19:17:00.000000000 -6.165969501890186e+03 -3.058694828341363e+03 -1.555631871945871e+03 -1.941236353335901e+00  2.394207917359301e-01  7.257363598411314e+00
2024-09-30T19:18:00.000000000 -6.269764246103631e+03 -3.038089046467248e+03 -1.117300203638747e+03 -1.517383982709798e+00  4.472174601280993e-01  7.348708722812587e+00
2024-09-30T19:19:00.000000000 -6.347928716863298e+03 -3.005063952021331e+03 -6.743888978906571e+02 -1.087186346844015e+00  6.532548400598225e-01  7.409959435704679e+00
2024-09-30T19:20:00.000000000 -6.400135196838122e+03 -2.959750699652802e+03 -2.287124602808963e+02 -6.524154776025987e-01  8.566811330229747e-01  7.440843394882417e+00
2024-09-30T19:21:00.000000000 -6.426162987737105e+03 -2.902331265902796e+03  2.179021295347574e+02 -2.148650290960359e-01  1.056654380598290e+00  7.441215580540557e+00
2024-09-30T19:22:00.000000000 -6.425899530031937e+03 -2.833037772394637e+03  6.636230026238180e+02  2.236569608893947e-01  1.252346010902719e+00  7.411059556916972e+00
2024-09-30T19:23:00.000000000 -6.399340930116556e+03 -2.752151536329016e+03  1.106621251170596e+03  6.613365009183563e-01  1.442944905884849e+00  7.350488590700796e+00
